[
  {
    "name": "Herzele",
    "link": "https://lblod.herzele.be/LBLODWeb/Home/Overzicht",
    "postcode": 9550
  },
  {
    "name": "Zottegem",
    "link": "https://lblod.zottegem.be/LBLODWeb/Home/Overzicht/",
    "postcode": 9620
  },
  {
    "name": "Oosterzele",
    "link": "https://lblod.oosterzele.be/LBLODWeb/Home/Overzicht",
    "postcode": 9860
  },
  {
    "name": "Geraardsbergen",
    "link": "https://geraardsbergen-echo.cipalschaubroeck.be/raadpleegomgeving/",
    "postcode": 9500
  },
  {
    "name": "Brakel",
    "link": "https://brakel-echo.cipalschaubroeck.be/raadpleegomgeving/",
    "postcode": 9660
  },
  {
    "name": "Sint-Lievens-Houtem",
    "link": "https://lblod.sint-lievens-houtem.be/LBLODWeb/Home/Overzicht",
    "postcode": 9520
  },
  {
    "name": "Zwalm",
    "link": "https://zwalm-echo.cipalschaubroeck.be/raadpleegomgeving/",
    "postcode": 9630
  },
  {
    "name": "Oudenaarde",
    "link": "https://lblod.oudenaarde.be/LBLODWeb/Home/Overzicht",
    "postcode": 9700
  },
  {
    "name": "Gent",
    "link": "https://ebesluitvorming.gent.be/",
    "postcode": 9000
  },
  {
    "name": "Kortrijk",
    "link": "https://raadpleeg-kortrijk.onlinesmartcities.be/",
    "postcode": 8500
  },
  {
    "name": "Brugge",
    "link": "https://besluitvorming.brugge.be/",
    "postcode": 8000
  },
  {
    "name": "Antwerpen",
    "link": "https://ebesluit.antwerpen.be/",
    "postcode": 2000
  },
  {
    "name": "Hasselt",
    "link": "https://ebesluit.hasselt.be/suite-consult/",
    "postcode": 3500
  },
  {
    "name": "Leuven",
    "link": "https://besluitvorming.leuven.be/",
    "postcode": 3000
  },
  {
    "name": "Kruisem",
    "link": "https://kruisem-echo.cipalschaubroeck.be/raadpleegomgeving/",
    "postcode": [9750, 9770]
  },
  {
    "name": "Destelbergen",
    "link": "https://www.destelbergen.be/bestuur/reglementen-besluiten",
    "postcode": 9070
  },
  {
    "name": "Ronse",
    "link": "https://lblod.ronse.be/LBLODWeb/Home/Overzicht",
    "postcode": 9600
  },
  {
    "name": "Kluisbergen",
    "link": "https://lblod.kluisbergen.be/LBLODWeb/Home/Overzicht",
    "postcode": 9690
  },
  {
    "name": "Wortegem-Petegem",
    "link": "https://lblod.wortegem-petegem.be/LBLODWeb/Home/Overzicht",
    "postcode": 9790
  },
  {
    "name": "Horebeke",
    "link": "https://lblod.horebeke.be/LBLODWeb/Home/Overzicht",
    "postcode": 9667
  },
  {
    "name": "Maarkedal",
    "link": "https://lblod.maarkedal.be/LBLODWeb/Home/Overzicht",
    "postcode": 9680
  },
  {
    "name": "Lierde",
    "link": "https://lblod.lierde.be/LBLODWeb/Home/Overzicht",
    "postcode": 9570
  },
  {
    "name": "Galmaarden",
    "link": "https://galmaarden-echo.cipalschaubroeck.be/raadpleegomgeving/",
    "postcode": 1570
  },
  {
    "name": "Erpe-Mere",
    "link": "https://lblod.erpe-mere.be/LBLODWeb/Home/Overzicht",
    "postcode": 9420
  },
  {
    "name": "Lede",
    "link": "https://lblod.lede.be/LBLODWeb/Home/Overzicht",
    "postcode": 9340
  },
  {
    "name": "Wetteren",
    "link": "https://lblod.wetteren.be/LBLODWeb/Home/Overzicht",
    "postcode": 9230
  },
  {
    "name": "Melle",
    "link": "https://lblod.melle.be/LBLODWeb/Home/Overzicht",
    "postcode": 9090
  },
  {
    "name": "Merelbeke",
    "link": "https://lblod.merelbeke.be/LBLODWeb/Home/Overzicht",
    "postcode": 9820
  },
  {
    "name": "Laarne",
    "link": "https://lblod.laarne.be/LBLODWeb/Home/Overzicht",
    "postcode": 9270
  },
  {
    "name": "Zele",
    "link": "https://lblod.zele.be/LBLODWeb/Home/Overzicht/",
    "postcode": 9240
  },
  {
    "name": "Ingelmunster",
    "link": "https://lblod.ingelmunster.be/LBLODWeb/Home/Overzicht",
    "postcode": 8770
  }
]
